NORAD_CAT_ID,TLE_LINE0,TLE_LINE1,TLE_LINE2,CREATION_DATE,OBJECT_NAME,OBJECT_ID,EPOCH,MEAN_MOTION,ECCENTRICITY,INCLINATION,RA_OF_ASC_NODE,ARG_OF_PERICENTER,MEAN_ANOMALY,REV_AT_EPOCH,BSTAR,MEAN_MOTION_DOT,MEAN_MOTION_DDOT,SEMIMAJOR_AXIS,PERIOD,APOAPSIS,PERIAPSIS,OBJECT_TYPE,COUNTRY_CODE,LAUNCH_DATE,SITE,DECAY_DATE,LAUNCH_YEAR,LAUNCH_SEQ,EPOCH_FINAL,ORBIT_CLASS,EVENT,DURATION,RCS_SIZE
256,0 SAMOS 6,1 00256U 62007  A 63158.27739320  .03156211 +22753-1 +00000-0 0  9993,2 00256 090.8902 255.4874 0000000 048.0342 312.0028 16.44157148071385,15/08/2004 23:35,SAMOS 6,1962-007A,07/06/1963 06:39,16.44157148,0.0,90.8902,255.4874,48.0342,312.0028,7138,0.0,0.03156211,0.022753,6532.908,87.582,154.773,154.773,PAYLOAD,CIS,19/01/1962,PKMTR,07/06/1963,1962,7,07/06/1963 13:18,LEO,1,504,MEDIUM
257,0 DELTA 1 R/B,1 00257U 62006  B 70121.42281878  .02642164 +00000-0 +00000-0 0  9994,2 00257 032.8131 138.9282 0000010 221.0716 138.9957 16.13662815449757,15/08/2004 23:37,DELTA 1 R/B,1962-006B,01/05/1970 10:08,16.13662815,1e-06,32.8131,138.9282,221.0716,138.9957,44975,0.0,0.02642164,0.0,6614.955,89.237,236.827,236.813,ROCKET BODY,US,17/01/1962,AFWTR,03/05/1970,1962,6,01/05/1970 20:17,LEO,1,3028,LARGE
258,0 SAMOS 6 DEB (REFLECTOR),1 00258U 62007  B 62088.64120173  .00828543 +00000-0 +00000-0 0  9998,2 00258 090.8226 200.9058 0031941 049.6100 310.6948 16.19198095003481,15/08/2004 23:35,SAMOS 6 DEB (REFLECTOR),1962-007B,29/03/1962 15:23,16.19198095,0.0031941,90.8226,200.9058,49.61,310.6948,348,0.0,0.00828543,0.0,6599.871,88.932,242.816,200.655,DEBRIS,CIS,21/01/1962,PKMTR,31/03/1962,1962,7,30/03/1962 06:46,LEO,1,69,SMALL
259,0 ATLAS AGENA B R/B,1 00259U 62007  C 62305.47437580  .01966707 +74632-0 +00000-0 0  9993,2 00259 090.8702 227.7376 0000000 236.3992 296.8127 16.28142081037246,15/08/2004 23:35,ATLAS AGENA B R/B,1962-007C,01/11/1962 11:23,16.28142081,0.0,90.8702,227.7376,236.3992,296.8127,3724,0.0,0.01966707,0.74632,6575.678,88.444,197.543,197.543,ROCKET BODY,US,23/01/1962,AFETR,03/11/1962,1962,7,01/11/1962 22:46,LEO,1,284,LARGE
260,0 THOR ABLESTAR DEB,1 00260U 61015CG  25193.29158171  .00001060  00000-0  34120-3 0  9995,2 00260  66.7676  27.3420 0043117   4.2716 355.8749 14.42618523307289,12/07/2025 17:51,THOR ABLESTAR DEB,1961-015CG,12/07/2025 06:59,14.42618523,0.0043117,66.7676,27.342,4.2716,355.8749,30728,0.0003412,1.06e-05,0.0,7127.997,99.818,780.596,719.128,DEBRIS,US,29/06/1961,AFETR,,1961,15,12/07/2025 13:59,LEO,0,23390,SMALL
261,0 THOR ABLESTAR DEB,1 00261U 61015CH  25193.41158921  .00000044  00000-0  79514-4 0  9991,2 00261  66.6795 180.3028 0092117 211.8069 147.7432 14.00882092264496,12/07/2025 17:51,THOR ABLESTAR DEB,1961-015CH,12/07/2025 09:52,14.00882092,0.0092117,66.6795,180.3028,211.8069,147.7432,26449,7.95e-05,4.4e-07,0.0,7268.879,102.792,957.703,823.785,DEBRIS,US,29/06/1961,AFETR,,1961,15,12/07/2025 19:45,LEO,0,23390,SMALL
262,0 THOR ABLESTAR DEB,1 00262U 61015CJ  25193.55368063  .00002366  00000-0  53443-3 0  9998,2 00262  66.4640 284.6240 0068215 320.5956  39.0202 14.56719559308982,12/07/2025 17:51,THOR ABLESTAR DEB,1961-015CJ,12/07/2025 13:17,14.56719559,0.0068215,66.464,284.624,320.5956,39.0202,30898,0.00053443,2.37e-05,0.0,7081.923,98.852,752.097,655.479,DEBRIS,US,29/06/1961,AFETR,,1961,15,13/07/2025 02:34,LEO,0,23390,SMALL
263,0 THOR ABLESTAR DEB,1 00263U 61015CK  25193.47190257  .00001002  00000-0  29092-3 0  9997,2 00263  66.5308 327.5327 0094709 155.7298 265.6352 14.46130914334154,12/07/2025 17:51,THOR ABLESTAR DEB,1961-015CK,12/07/2025 11:19,14.46130914,0.0094709,66.5308,327.5327,155.7298,265.6352,33415,0.00029092,1e-05,0.0,7116.451,99.576,805.715,670.916,DEBRIS,US,29/06/1961,AFETR,,1961,15,12/07/2025 22:39,LEO,0,23390,SMALL
264,0 THOR ABLESTAR DEB,1 00264U 61015CL  25193.58936932  .00001287  00000-0  46017-3 0  9999,2 00264  66.5241  58.9100 0031855 266.1447  93.6011 14.37059580284829,12/07/2025 17:51,THOR ABLESTAR DEB,1961-015CL,12/07/2025 14:08,14.3705958,0.0031855,66.5241,58.91,266.1447,93.6011,28482,0.00046017,1.29e-05,0.0,7146.367,100.205,790.997,745.467,DEBRIS,US,29/06/1961,AFETR,,1961,15,13/07/2025 04:17,LEO,0,23390,SMALL
265,0 THOR ABLESTAR DEB,1 00265U 61015 CM 78277.56626127  .01505903 +00000-0 +00000-0 0  9995,2 00265 066.5596 308.6098 0003218 300.6274 073.6396 15.77790913921524,15/08/2004 23:41,THOR ABLESTAR DEB,1961-015CM,04/10/1978 13:35,15.77790913,0.0003218,66.5596,308.6098,300.6274,73.6396,92152,0.0,0.01505903,0.0,6714.842,91.266,338.868,334.546,DEBRIS,US,29/06/1961,AFETR,12/10/1978,1961,15,05/10/1978 03:10,LEO,1,6314,SMALL
266,0 COSMOS 1 (SPUTNIK 11),1 00266U 62008  A 62141.87528190  .02135369 +00000-0 +00000-0 0  9993,2 00266 048.9855 317.5610 0119598 042.4543 141.8598 16.04632966010227,15/08/2004 23:35,COSMOS 1 (SPUTNIK 11),1962-008A,21/05/1962 21:00,16.04632966,0.0119598,48.9855,317.561,42.4543,141.8598,1022,0.0,0.02135369,0.0,6639.748,89.74,341.023,182.203,PAYLOAD,CIS,25/01/1962,PKMTR,23/05/1962,1962,8,22/05/1962 18:00,LEO,1,118,MEDIUM
267,0 SL-7 R/B,1 00267U 62008  B 62166.95571170  .02757985 +14437-1 +00000-0 0  9990,2 00267 049.0300 186.5920 0104913 154.8112 185.5524 16.12103375014109,15/08/2004 23:35,SL-7 R/B,1962-008B,15/06/1962 22:56,16.12103375,0.0104913,49.03,186.592,154.8112,185.5524,1410,0.0,0.02757985,0.014437,6619.22,89.324,310.529,171.641,ROCKET BODY,CIS,27/01/1962,PKMTR,18/06/1962,1962,8,16/06/1962 21:52,LEO,1,142,LARGE
268,0 THOR ABLESTAR DEB,1 00268U 61015CN  25193.49174686  .00000581  00000-0  18705-2 0  9991,2 00268  67.9388 109.5468 0647586  31.9240 139.4144 12.51505398910743,12/07/2025 17:51,THOR ABLESTAR DEB,1961-015CN,12/07/2025 11:48,12.51505398,0.0647586,67.9388,109.5468,31.924,139.4144,91074,0.0018705,5.81e-06,0.0,7836.342,115.061,1965.677,950.736,DEBRIS,US,29/06/1961,AFETR,,1961,15,12/07/2025 23:36,LEO,0,23390,SMALL
269,0 COSMOS 2 (SPUTNIK 12),1 00269U 62009  A 63229.96168589  .02320186 +00000-0 +00000-0 0  9990,2 00269 048.8589 171.1884 0056512 050.1316 310.3546 16.29526092074089,15/08/2004 23:35,COSMOS 2 (SPUTNIK 12),1962-009A,17/08/1963 23:04,16.29526092,0.0056512,48.8589,171.1884,50.1316,310.3546,7408,0.0,0.02320186,0.0,6571.954,88.369,230.959,156.68,PAYLOAD,CIS,29/01/1962,PKMTR,23/08/1963,1962,9,18/08/1963 22:09,LEO,1,571,MEDIUM
270,0 SL-7 R/B,1 00270U 62009  B 62276.05383240  .12155272 +00000-0 +00000-0 0  9999,2 00270 048.8888 264.9199 0157800 140.9800 314.1000 16.00161027026616,15/08/2004 23:35,SL-7 R/B,1962-009B,03/10/1962 01:17,16.00161027,0.01578,48.8888,264.9199,140.98,314.1,2661,0.0,0.12155272,0.0,6652.113,89.99,378.948,169.008,ROCKET BODY,CIS,31/01/1962,PKMTR,06/10/1962,1962,9,03/10/1962 02:35,LEO,1,248,LARGE
271,0 MIDAS 5 (STRONGBACK),1 00271U 62010A   25193.45506268 -.00000010  00000-0 -31439-2 0  9990,2 00271  86.6716   5.2147 0328278  86.9260 276.9149  9.41307770173700,12/07/2025 17:51,MIDAS 5 (STRONGBACK),1962-010A,12/07/2025 10:55,9.4130777,0.0328278,86.6716,5.2147,86.926,276.9149,17370,-0.0031439,-1e-07,0.0,9475.033,152.979,3407.943,2785.854,PAYLOAD,US,09/04/1962,AFWTR,,1962,10,12/07/2025 21:50,MEO,0,23106,LARGE
272,0 MIDAS 5 DEB,1 00272U 62010  B 62101.83489479  .04379992 +00000-0 +00000-0 0  9995,2 00272 086.6390 125.3948 1687799 164.3815 172.0584 12.62199136000289,15/08/2004 23:35,MIDAS 5 DEB,1962-010B,11/04/1962 20:02,12.62199136,0.1687799,86.639,125.3948,164.3815,172.0584,28,0.0,0.04379992,0.0,7792.022,114.086,2729.024,98.75,DEBRIS,US,02/02/1962,AFWTR,04/05/1962,1962,10,12/04/1962 16:04,LEO,1,91,SMALL
273,0 MIDAS 5 DEB,1 00273U 62010C   25192.39148604 -.00000008  00000-0 -21253-2 0  9990,2 00273  86.6707 346.9342 0322262 279.1326  77.3258  9.43816792179138,11/07/2025 18:37,MIDAS 5 DEB,1962-010C,11/07/2025 09:23,9.43816792,0.0322262,86.6707,346.9342,279.1326,77.3258,17913,-0.0021253,-8e-08,0.0,9458.234,152.572,3384.902,2775.296,DEBRIS,US,09/04/1962,AFWTR,,1962,10,11/07/2025 18:47,MEO,0,23106,LARGE
274,0 MIDAS 5 DEB,1 00274U 62010D   25193.55142533  .00000005  00000-0  26731-3 0  9997,2 00274  86.6648  22.7070 0350953 224.0128 133.2331  9.39385784168899,12/07/2025 17:51,MIDAS 5 DEB,1962-010D,12/07/2025 13:14,9.39385784,0.0350953,86.6648,22.707,224.0128,133.2331,16889,0.00026731,5e-08,0.0,9487.953,153.292,3442.8,2776.835,DEBRIS,US,09/04/1962,AFWTR,,1962,10,13/07/2025 02:28,MEO,0,23106,LARGE
275,0 THOR ABLESTAR DEB,1   275U 61015CP  01335.60185935 +.31140594 +62614-5 +13683-1 0  9999,2   275 066.7016 150.2189 0009517 302.7429 057.3030 16.22003561101283,27/05/2004 14:51,THOR ABLESTAR DEB,1961-015CP,01/12/2001 14:26,16.22003561,0.0009517,66.7016,150.2189,302.7429,57.303,10128,0.013683,0.31140594,6.26e-06,6592.258,88.779,220.397,207.849,DEBRIS,US,29/06/1961,AFETR,01/12/2001,1961,15,02/12/2001 04:53,LEO,1,14765,SMALL
276,0 FTV 1154,1 00276U 62011  A 62142.71547270  .03426992 +00000-0 +00000-0 0  9998,2 00276 073.5580 207.2731 0000362 063.4595 231.9827 16.34562408005523,15/08/2004 23:35,FTV 1154,1962-011A,22/05/1962 17:10,16.34562408,3.62e-05,73.558,207.2731,63.4595,231.9827,552,0.0,0.03426992,0.0,6558.448,88.096,180.55,180.076,PAYLOAD,US,04/02/1962,AFWTR,28/05/1962,1962,11,23/05/1962 10:20,LEO,1,113,MEDIUM
281,0 COSMOS 3 (SPUTNIK 13),1 00281U 62013  A 62286.69018669  .01346258 +57778-1 +00000-0 0  9996,2 00281 048.9525 018.5667 0045683 187.6986 080.4247 16.18663306026957,15/08/2004 23:35,COSMOS 3 (SPUTNIK 13),1962-013A,13/10/1962 16:33,16.18663306,0.0045683,48.9525,18.5667,187.6986,80.4247,2695,0.0,0.01346258,0.057778,6601.324,88.962,253.346,193.033,PAYLOAD,CIS,06/02/1962,PKMTR,17/10/1962,1962,13,14/10/1962 09:07,LEO,1,253,MEDIUM
283,0 SL-7 R/B,1 00283U 62013  B 62212.65735052  .01068171 +00000-0 +00000-0 0  9995,2 00283 048.9625 052.3426 0067463 200.0339 159.6998 16.08890929015403,15/08/2004 23:35,SL-7 R/B,1962-013B,31/07/1962 15:46,16.08890929,0.0067463,48.9625,52.3426,200.0339,159.6998,1540,0.0,0.01068171,0.0,6628.028,89.502,294.608,205.179,ROCKET BODY,CIS,08/02/1962,PKMTR,05/08/1962,1962,13,01/08/1962 07:33,LEO,1,178,LARGE
